[{"OBJECT_NAME":"ONEWEB-0456","OBJECT_ID":"2022-012AA","EPOCH":"2025-11-12T15:22:41.205216","MEAN_MOTION":13.10375028,"ECCENTRICITY":0.00016973,"INCLINATION":87.8808,"RA_OF_ASC_NODE":79.394,"ARG_OF_PERICENTER":101.7632,"MEAN_ANOMALY":258.3686,"EPHEMERIS_TYPE":0,"CLASSIFICATION_TYPE":"U","NORAD_CAT_ID":51646,"ELEMENT_SET_NO":999,"REV_AT_EPOCH":18098,"BSTAR":0.0019900655,"MEAN_MOTION_DOT":7.07e-6,"MEAN_MOTION_DDOT":0},{"OBJECT_NAME":"ONEWEB-0457","OBJECT_ID":"2022-012AB","EPOCH":"2025-11-13T01:48:55.143072","MEAN_MOTION":13.10376962,"ECCENTRICITY":0.00011662,"INCLINATION":87.8797,"RA_OF_ASC_NODE":79.3581,"ARG_OF_PERICENTER":91.5979,"MEAN_ANOMALY":268.5282,"EPHEMERIS_TYPE":0,"CLASSIFICATION_TYPE":"U","NORAD_CAT_ID":51647,"ELEMENT_SET_NO":999,"REV_AT_EPOCH":18104,"BSTAR":-0.0012627751,"MEAN_MOTION_DOT":-4.28e-6,"MEAN_MOTION_DDOT":0},{"OBJECT_NAME":"ONEWEB-0458","OBJECT_ID":"2022-012AC","EPOCH":"2025-11-13T05:59:56.491296","MEAN_MOTION":13.10376052,"ECCENTRICITY":0.00014132,"INCLINATION":87.8807,"RA_OF_ASC_NODE":79.2951,"ARG_OF_PERICENTER":105.8885,"MEAN_ANOMALY":254.2398,"EPHEMERIS_TYPE":0,"CLASSIFICATION_TYPE":"U","NORAD_CAT_ID":51648,"ELEMENT_SET_NO":999,"REV_AT_EPOCH":18102,"BSTAR":0.0018120339,"MEAN_MOTION_DOT":6.45e-6,"MEAN_MOTION_DDOT":0},{"OBJECT_NAME":"ONEWEB-0461","OBJECT_ID":"2022-012AD","EPOCH":"2025-11-13T06:23:55.624128","MEAN_MOTION":13.17652626,"ECCENTRICITY":0.00016333,"INCLINATION":87.914,"RA_OF_ASC_NODE":48.779,"ARG_OF_PERICENTER":97.3199,"MEAN_ANOMALY":262.8119,"EPHEMERIS_TYPE":0,"CLASSIFICATION_TYPE":"U","NORAD_CAT_ID":51649,"ELEMENT_SET_NO":999,"REV_AT_EPOCH":18545,"BSTAR":0.00016105888,"MEAN_MOTION_DOT":7.5e-7,"MEAN_MOTION_DDOT":0},{"OBJECT_NAME":"ONEWEB-0463","OBJECT_ID":"2022-012AE","EPOCH":"2025-11-13T05:57:11.033568","MEAN_MOTION":13.17652473,"ECCENTRICITY":0.00016714,"INCLINATION":87.9122,"RA_OF_ASC_NODE":48.8323,"ARG_OF_PERICENTER":104.4315,"MEAN_ANOMALY":255.7002,"EPHEMERIS_TYPE":0,"CLASSIFICATION_TYPE":"U","NORAD_CAT_ID":51650,"ELEMENT_SET_NO":999,"REV_AT_EPOCH":18523,"BSTAR":0.00024031567,"MEAN_MOTION_DOT":1.06e-6,"MEAN_MOTION_DDOT":0},{"OBJECT_NAME":"ONEWEB-0464","OBJECT_ID":"2022-012AF","EPOCH":"2025-11-13T05:55:07.964544","MEAN_MOTION":13.10373893,"ECCENTRICITY":0.00017782,"INCLINATION":87.8801,"RA_OF_ASC_NODE":79.3337,"ARG_OF_PERICENTER":102.8395,"MEAN_ANOMALY":257.2932,"EPHEMERIS_TYPE":0,"CLASSIFICATION_TYPE":"U","NORAD_CAT_ID":51651,"ELEMENT_SET_NO":999,"REV_AT_EPOCH":18104,"BSTAR":0.0012954735,"MEAN_MOTION_DOT":4.65e-6,"MEAN_MOTION_DDOT":0},{"OBJECT_NAME":"ONEWEB-0468","OBJECT_ID":"2022-012AG","EPOCH":"2025-11-13T06:04:42.289536","MEAN_MOTION":13.10375064,"ECCENTRICITY":0.00016195,"INCLINATION":87.8797,"RA_OF_ASC_NODE":79.3248,"ARG_OF_PERICENTER":107.7717,"MEAN_ANOMALY":252.3587,"EPHEMERIS_TYPE":0,"CLASSIFICATION_TYPE":"U","NORAD_CAT_ID":51652,"ELEMENT_SET_NO":999,"REV_AT_EPOCH":18102,"BSTAR":0.0020086024,"MEAN_MOTION_DOT":7.14e-6,"MEAN_MOTION_DDOT":0},{"OBJECT_NAME":"ONEWEB-0473","OBJECT_ID":"2022-012AH","EPOCH":"2025-11-13T02:03:16.702272","MEAN_MOTION":13.10377725,"ECCENTRICITY":0.00015581,"INCLINATION":87.8796,"RA_OF_ASC_NODE":79.362,"ARG_OF_PERICENTER":104.9907,"MEAN_ANOMALY":255.1393,"EPHEMERIS_TYPE":0,"CLASSIFICATION_TYPE":"U","NORAD_CAT_ID":51653,"ELEMENT_SET_NO":999,"REV_AT_EPOCH":18100,"BSTAR":0.00027653822,"MEAN_MOTION_DOT":1.09e-6,"MEAN_MOTION_DDOT":0},{"OBJECT_NAME":"ONEWEB-0474","OBJECT_ID":"2022-012AJ","EPOCH":"2025-11-13T01:51:19.400832","MEAN_MOTION":13.10376847,"ECCENTRICITY":0.0001751,"INCLINATION":87.8805,"RA_OF_ASC_NODE":79.328,"ARG_OF_PERICENTER":107.9323,"MEAN_ANOMALY":252.1996,"EPHEMERIS_TYPE":0,"CLASSIFICATION_TYPE":"U","NORAD_CAT_ID":51654,"ELEMENT_SET_NO":999,"REV_AT_EPOCH":18099,"BSTAR":-0.00099637555,"MEAN_MOTION_DOT":-3.35e-6,"MEAN_MOTION_DDOT":0},{"OBJECT_NAME":"ONEWEB-0475","OBJECT_ID":"2022-012AK","EPOCH":"2025-11-13T06:14:11.924736","MEAN_MOTION":13.17652654,"ECCENTRICITY":0.00020549,"INCLINATION":87.9132,"RA_OF_ASC_NODE":48.8168,"ARG_OF_PERICENTER":124.4068,"MEAN_ANOMALY":235.7258,"EPHEMERIS_TYPE":0,"CLASSIFICATION_TYPE":"U","NORAD_CAT_ID":51655,"ELEMENT_SET_NO":999,"REV_AT_EPOCH":18525,"BSTAR":0.00031260471,"MEAN_MOTION_DOT":1.34e-6,"MEAN_MOTION_DDOT":0},{"OBJECT_NAME":"ONEWEB-0490","OBJECT_ID":"2022-138A","EPOCH":"2025-11-13T03:10:50.644704","MEAN_MOTION":13.19725966,"ECCENTRICITY":0.00020137,"INCLINATION":87.923,"RA_OF_ASC_NODE":347.9442,"ARG_OF_PERICENTER":97.8428,"MEAN_ANOMALY":262.2933,"EPHEMERIS_TYPE":0,"CLASSIFICATION_TYPE":"U","NORAD_CAT_ID":54113,"ELEMENT_SET_NO":999,"REV_AT_EPOCH":14833,"BSTAR":0.00022944799,"MEAN_MOTION_DOT":1.05e-6,"MEAN_MOTION_DDOT":0},{"OBJECT_NAME":"ONEWEB-0492","OBJECT_ID":"2022-138B","EPOCH":"2025-11-13T01:58:03.751104","MEAN_MOTION":13.19728117,"ECCENTRICITY":0.00020561,"INCLINATION":87.9221,"RA_OF_ASC_NODE":347.9721,"ARG_OF_PERICENTER":92.9294,"MEAN_ANOMALY":267.2074,"EPHEMERIS_TYPE":0,"CLASSIFICATION_TYPE":"U","NORAD_CAT_ID":54114,"ELEMENT_SET_NO":999,"REV_AT_EPOCH":14833,"BSTAR":8.6070464e-5,"MEAN_MOTION_DOT":4.7e-7,"MEAN_MOTION_DDOT":0},{"OBJECT_NAME":"ONEWEB-0495","OBJECT_ID":"2022-138C","EPOCH":"2025-11-13T03:15:24.576768","MEAN_MOTION":13.19723004,"ECCENTRICITY":0.00027708,"INCLINATION":87.9222,"RA_OF_ASC_NODE":347.9665,"ARG_OF_PERICENTER":107.793,"MEAN_ANOMALY":252.3505,"EPHEMERIS_TYPE":0,"CLASSIFICATION_TYPE":"U","NORAD_CAT_ID":54115,"ELEMENT_SET_NO":999,"REV_AT_EPOCH":14832,"BSTAR":0.00078463356,"MEAN_MOTION_DOT":3.27e-6,"MEAN_MOTION_DDOT":0},{"OBJECT_NAME":"ONEWEB-0497","OBJECT_ID":"2022-138D","EPOCH":"2025-11-13T03:33:36.281376","MEAN_MOTION":13.19726149,"ECCENTRICITY":0.00019365,"INCLINATION":87.9225,"RA_OF_ASC_NODE":347.9482,"ARG_OF_PERICENTER":96.3561,"MEAN_ANOMALY":263.7793,"EPHEMERIS_TYPE":0,"CLASSIFICATION_TYPE":"U","NORAD_CAT_ID":54116,"ELEMENT_SET_NO":999,"REV_AT_EPOCH":14831,"BSTAR":1.5798226e-5,"MEAN_MOTION_DOT":1.9e-7,"MEAN_MOTION_DDOT":0},{"OBJECT_NAME":"ONEWEB-0499","OBJECT_ID":"2022-138E","EPOCH":"2025-11-13T03:09:44.007840","MEAN_MOTION":13.19726144,"ECCENTRICITY":0.00018751,"INCLINATION":87.9223,"RA_OF_ASC_NODE":347.9648,"ARG_OF_PERICENTER":103.1494,"MEAN_ANOMALY":256.9848,"EPHEMERIS_TYPE":0,"CLASSIFICATION_TYPE":"U","NORAD_CAT_ID":54117,"ELEMENT_SET_NO":999,"REV_AT_EPOCH":14832,"BSTAR":9.449895e-6,"MEAN_MOTION_DOT":1.7e-7,"MEAN_MOTION_DDOT":0},{"OBJECT_NAME":"ONEWEB-0500","OBJECT_ID":"2022-138F","EPOCH":"2025-11-13T01:23:57.512256","MEAN_MOTION":13.19726034,"ECCENTRICITY":0.00018362,"INCLINATION":87.9225,"RA_OF_ASC_NODE":347.9669,"ARG_OF_PERICENTER":92.4554,"MEAN_ANOMALY":267.6789,"EPHEMERIS_TYPE":0,"CLASSIFICATION_TYPE":"U","NORAD_CAT_ID":54118,"ELEMENT_SET_NO":999,"REV_AT_EPOCH":14832,"BSTAR":5.1753362e-5,"MEAN_MOTION_DOT":3.4e-7,"MEAN_MOTION_DDOT":0}]
