ONEWEB-0456             
1 51646U 22012AA  25316.64075469  .00000707  00000+0  19901-2 0  9992
2 51646  87.8808  79.3940 0001697 101.7632 258.3686 13.10375028180982
ONEWEB-0457             
1 51647U 22012AB  25317.07563823 -.00000428  00000+0 -12628-2 0  9998
2 51647  87.8797  79.3581 0001166  91.5979 268.5282 13.10376962181043
ONEWEB-0458             
1 51648U 22012AC  25317.24995939  .00000645  00000+0  18120-2 0  9997
2 51648  87.8807  79.2951 0001413 105.8885 254.2398 13.10376052181024
ONEWEB-0461             
1 51649U 22012AD  25317.26661602  .00000075  00000+0  16106-3 0  9997
2 51649  87.9140  48.7790 0001633  97.3199 262.8119 13.17652626185453
ONEWEB-0463             
1 51650U 22012AE  25317.24804437  .00000106  00000+0  24032-3 0  9994
2 51650  87.9122  48.8323 0001671 104.4315 255.7002 13.17652473185238
ONEWEB-0464             
1 51651U 22012AF  25317.24661996  .00000465  00000+0  12955-2 0  9994
2 51651  87.8801  79.3337 0001778 102.8395 257.2932 13.10373893181047
ONEWEB-0468             
1 51652U 22012AG  25317.25326724  .00000714  00000+0  20086-2 0  9994
2 51652  87.8797  79.3248 0001619 107.7717 252.3587 13.10375064181021
ONEWEB-0473             
1 51653U 22012AH  25317.08560998  .00000109  00000+0  27654-3 0  9996
2 51653  87.8796  79.3620 0001558 104.9907 255.1393 13.10377725181007
ONEWEB-0474             
1 51654U 22012AJ  25317.07730788 -.00000335  00000+0 -99638-3 0  9996
2 51654  87.8805  79.3280 0001751 107.9323 252.1996 13.10376847180998
ONEWEB-0475             
1 51655U 22012AK  25317.25986024  .00000134  00000+0  31260-3 0  9995
2 51655  87.9132  48.8168 0002054 124.4068 235.7258 13.17652654185258
ONEWEB-0490             
1 54113U 22138A   25317.13253061  .00000105  00000+0  22945-3 0  9999
2 54113  87.9230 347.9442 0002013  97.8428 262.2933 13.19725966148337
ONEWEB-0492             
1 54114U 22138B   25317.08198786  .00000047  00000+0  86070-4 0  9991
2 54114  87.9221 347.9721 0002056  92.9294 267.2074 13.19728117148334
ONEWEB-0495             
1 54115U 22138C   25317.13570112  .00000327  00000+0  78463-3 0  9992
2 54115  87.9222 347.9665 0002770 107.7930 252.3505 13.19723004148321
ONEWEB-0497             
1 54116U 22138D   25317.14833659  .00000019  00000+0  15798-4 0  9993
2 54116  87.9225 347.9482 0001936  96.3561 263.7793 13.19726149148315
ONEWEB-0499             
1 54117U 22138E   25317.13175935  .00000017  00000+0  94499-5 0  9993
2 54117  87.9223 347.9648 0001875 103.1494 256.9848 13.19726144148323
ONEWEB-0500             
1 54118U 22138F   25317.05830454  .00000034  00000+0  51753-4 0  9993
2 54118  87.9225 347.9669 0001836  92.4554 267.6789 13.19726034148324
